{"fetched_at":"2026-07-15T06:35:26.722Z","source":"https://celestrak.org/NORAD/elements/gp.php?GROUP=globalstar&FORMAT=JSON","constellation":"globalstar","records":[{"OBJECT_NAME":"GLOBALSTAR M069","OBJECT_ID":"2007-020C","EPOCH":"2026-07-14T23:04:56.388864","CLASSIFICATION_TYPE":"U","MEAN_MOTION":12.23472237,"ECCENTRICITY":0.00016537,"INCLINATION":52.001,"RA_OF_ASC_NODE":173.5126,"ARG_OF_PERICENTER":209.6394,"MEAN_ANOMALY":184.4079,"EPHEMERIS_TYPE":0,"NORAD_CAT_ID":31573,"ELEMENT_SET_NO":999,"REV_AT_EPOCH":88220,"BSTAR":-0.00016970052,"MEAN_MOTION_DOT":-0.00000111,"MEAN_MOTION_DDOT":0},{"OBJECT_NAME":"GLOBALSTAR M072","OBJECT_ID":"2007-020D","EPOCH":"2026-07-14T19:47:23.160768","CLASSIFICATION_TYPE":"U","MEAN_MOTION":11.91658777,"ECCENTRICITY":0.00016548,"INCLINATION":51.9948,"RA_OF_ASC_NODE":26.6672,"ARG_OF_PERICENTER":34.6897,"MEAN_ANOMALY":66.8918,"EPHEMERIS_TYPE":0,"NORAD_CAT_ID":31574,"ELEMENT_SET_NO":999,"REV_AT_EPOCH":87827,"BSTAR":0.00017894521,"MEAN_MOTION_DOT":-7.1e-7,"MEAN_MOTION_DDOT":0},{"OBJECT_NAME":"GLOBALSTAR M066","OBJECT_ID":"2007-048C","EPOCH":"2026-07-14T16:56:28.037184","CLASSIFICATION_TYPE":"U","MEAN_MOTION":12.3038936,"ECCENTRICITY":0.00056177,"INCLINATION":51.961,"RA_OF_ASC_NODE":338.9151,"ARG_OF_PERICENTER":100.5943,"MEAN_ANOMALY":1.9845,"EPHEMERIS_TYPE":0,"NORAD_CAT_ID":32265,"ELEMENT_SET_NO":999,"REV_AT_EPOCH":86361,"BSTAR":0.00028741856,"MEAN_MOTION_DOT":-6.1e-7,"MEAN_MOTION_DDOT":0},{"OBJECT_NAME":"GLOBALSTAR M079","OBJECT_ID":"2010-054A","EPOCH":"2026-07-14T20:39:29.099808","CLASSIFICATION_TYPE":"U","MEAN_MOTION":12.62266417,"ECCENTRICITY":0.00011197,"INCLINATION":52.0053,"RA_OF_ASC_NODE":24.4276,"ARG_OF_PERICENTER":77.0818,"MEAN_ANOMALY":29.8542,"EPHEMERIS_TYPE":0,"NORAD_CAT_ID":37188,"ELEMENT_SET_NO":999,"REV_AT_EPOCH":72604,"BSTAR":0.000009191188,"MEAN_MOTION_DOT":-0.00000102,"MEAN_MOTION_DDOT":0},{"OBJECT_NAME":"GLOBALSTAR M074","OBJECT_ID":"2010-054B","EPOCH":"2026-07-14T17:21:17.853984","CLASSIFICATION_TYPE":"U","MEAN_MOTION":12.62262019,"ECCENTRICITY":0.00008681,"INCLINATION":52.0032,"RA_OF_ASC_NODE":24.1076,"ARG_OF_PERICENTER":92.6101,"MEAN_ANOMALY":348.5918,"EPHEMERIS_TYPE":0,"NORAD_CAT_ID":37189,"ELEMENT_SET_NO":999,"REV_AT_EPOCH":72663,"BSTAR":0.000005441291,"MEAN_MOTION_DOT":-0.00000103,"MEAN_MOTION_DDOT":0},{"OBJECT_NAME":"GLOBALSTAR M076","OBJECT_ID":"2010-054C","EPOCH":"2026-07-14T20:30:50.999616","CLASSIFICATION_TYPE":"U","MEAN_MOTION":12.62262376,"ECCENTRICITY":0.00010902,"INCLINATION":52.0045,"RA_OF_ASC_NODE":23.9126,"ARG_OF_PERICENTER":91.7985,"MEAN_ANOMALY":107.7621,"EPHEMERIS_TYPE":0,"NORAD_CAT_ID":37190,"ELEMENT_SET_NO":999,"REV_AT_EPOCH":72636,"BSTAR":0.000088851392,"MEAN_MOTION_DOT":-8.8e-7,"MEAN_MOTION_DDOT":0},{"OBJECT_NAME":"GLOBALSTAR M077","OBJECT_ID":"2010-054D","EPOCH":"2026-07-14T13:04:00.551712","CLASSIFICATION_TYPE":"U","MEAN_MOTION":11.67547542,"ECCENTRICITY":0.00022854,"INCLINATION":51.9953,"RA_OF_ASC_NODE":109.8583,"ARG_OF_PERICENTER":224.4199,"MEAN_ANOMALY":306.704,"EPHEMERIS_TYPE":0,"NORAD_CAT_ID":37191,"ELEMENT_SET_NO":999,"REV_AT_EPOCH":72433,"BSTAR":-0.00033325042,"MEAN_MOTION_DOT":-9.6e-7,"MEAN_MOTION_DDOT":0},{"OBJECT_NAME":"GLOBALSTAR M075","OBJECT_ID":"2010-054E","EPOCH":"2026-07-15T00:19:08.510016","CLASSIFICATION_TYPE":"U","MEAN_MOTION":12.62267841,"ECCENTRICITY":0.00007509,"INCLINATION":51.9953,"RA_OF_ASC_NODE":65.4683,"ARG_OF_PERICENTER":64.7636,"MEAN_ANOMALY":76.0712,"EPHEMERIS_TYPE":0,"NORAD_CAT_ID":37192,"ELEMENT_SET_NO":999,"REV_AT_EPOCH":72545,"BSTAR":0.000076821346,"MEAN_MOTION_DOT":-9e-7,"MEAN_MOTION_DDOT":0},{"OBJECT_NAME":"GLOBALSTAR M073","OBJECT_ID":"2010-054F","EPOCH":"2026-07-14T14:30:34.079040","CLASSIFICATION_TYPE":"U","MEAN_MOTION":12.62266896,"ECCENTRICITY":0.0001068,"INCLINATION":52.008,"RA_OF_ASC_NODE":340.8348,"ARG_OF_PERICENTER":96.0877,"MEAN_ANOMALY":344.8315,"EPHEMERIS_TYPE":0,"NORAD_CAT_ID":37193,"ELEMENT_SET_NO":999,"REV_AT_EPOCH":72739,"BSTAR":-0.0000065419,"MEAN_MOTION_DOT":-0.00000105,"MEAN_MOTION_DDOT":0},{"OBJECT_NAME":"GLOBALSTAR M083","OBJECT_ID":"2011-033A","EPOCH":"2026-07-14T12:33:43.432704","CLASSIFICATION_TYPE":"U","MEAN_MOTION":12.62264144,"ECCENTRICITY":0.00007835,"INCLINATION":51.9869,"RA_OF_ASC_NODE":289.2745,"ARG_OF_PERICENTER":106.0658,"MEAN_ANOMALY":267.2317,"EPHEMERIS_TYPE":0,"NORAD_CAT_ID":37739,"ELEMENT_SET_NO":999,"REV_AT_EPOCH":69640,"BSTAR":0.00015962991,"MEAN_MOTION_DOT":-7.5e-7,"MEAN_MOTION_DDOT":0},{"OBJECT_NAME":"GLOBALSTAR M088","OBJECT_ID":"2011-033B","EPOCH":"2026-07-14T04:41:20.586624","CLASSIFICATION_TYPE":"U","MEAN_MOTION":12.62269458,"ECCENTRICITY":0.0000061,"INCLINATION":52.0185,"RA_OF_ASC_NODE":196.7647,"ARG_OF_PERICENTER":141.9135,"MEAN_ANOMALY":298.6738,"EPHEMERIS_TYPE":0,"NORAD_CAT_ID":37740,"ELEMENT_SET_NO":999,"REV_AT_EPOCH":69190,"BSTAR":0.000011801307,"MEAN_MOTION_DOT":-0.00000102,"MEAN_MOTION_DDOT":0},{"OBJECT_NAME":"GLOBALSTAR M091","OBJECT_ID":"2011-033C","EPOCH":"2026-07-14T07:20:52.115136","CLASSIFICATION_TYPE":"U","MEAN_MOTION":12.62264242,"ECCENTRICITY":0.00004048,"INCLINATION":51.9979,"RA_OF_ASC_NODE":159.3526,"ARG_OF_PERICENTER":21.5274,"MEAN_ANOMALY":143.332,"EPHEMERIS_TYPE":0,"NORAD_CAT_ID":37741,"ELEMENT_SET_NO":999,"REV_AT_EPOCH":69270,"BSTAR":-0.000097057082,"MEAN_MOTION_DOT":-0.00000121,"MEAN_MOTION_DDOT":0},{"OBJECT_NAME":"GLOBALSTAR M085","OBJECT_ID":"2011-033D","EPOCH":"2026-07-14T21:45:55.663200","CLASSIFICATION_TYPE":"U","MEAN_MOTION":12.62264312,"ECCENTRICITY":0.0000775,"INCLINATION":52.0122,"RA_OF_ASC_NODE":108.8402,"ARG_OF_PERICENTER":41.1098,"MEAN_ANOMALY":34.9259,"EPHEMERIS_TYPE":0,"NORAD_CAT_ID":37742,"ELEMENT_SET_NO":999,"REV_AT_EPOCH":69329,"BSTAR":-0.000011461614,"MEAN_MOTION_DOT":-0.00000106,"MEAN_MOTION_DDOT":0},{"OBJECT_NAME":"GLOBALSTAR M081","OBJECT_ID":"2011-033E","EPOCH":"2026-07-14T22:24:59.243328","CLASSIFICATION_TYPE":"U","MEAN_MOTION":12.62265258,"ECCENTRICITY":0.00006604,"INCLINATION":51.9952,"RA_OF_ASC_NODE":111.1621,"ARG_OF_PERICENTER":54.4893,"MEAN_ANOMALY":24.7086,"EPHEMERIS_TYPE":0,"NORAD_CAT_ID":37743,"ELEMENT_SET_NO":999,"REV_AT_EPOCH":69344,"BSTAR":-0.000057556856,"MEAN_MOTION_DOT":-0.00000114,"MEAN_MOTION_DDOT":0},{"OBJECT_NAME":"GLOBALSTAR M089","OBJECT_ID":"2011-033F","EPOCH":"2026-07-14T19:33:22.176000","CLASSIFICATION_TYPE":"U","MEAN_MOTION":12.62267589,"ECCENTRICITY":0.0000696,"INCLINATION":51.9936,"RA_OF_ASC_NODE":65.6785,"ARG_OF_PERICENTER":89.6274,"MEAN_ANOMALY":348.838,"EPHEMERIS_TYPE":0,"NORAD_CAT_ID":37744,"ELEMENT_SET_NO":999,"REV_AT_EPOCH":69427,"BSTAR":0.000067547205,"MEAN_MOTION_DOT":-9.2e-7,"MEAN_MOTION_DDOT":0},{"OBJECT_NAME":"GLOBALSTAR M084","OBJECT_ID":"2011-080A","EPOCH":"2026-07-14T13:49:49.314144","CLASSIFICATION_TYPE":"U","MEAN_MOTION":12.62263488,"ECCENTRICITY":0.0000849,"INCLINATION":52.0022,"RA_OF_ASC_NODE":293.9022,"ARG_OF_PERICENTER":127.8707,"MEAN_ANOMALY":245.7709,"EPHEMERIS_TYPE":0,"NORAD_CAT_ID":38040,"ELEMENT_SET_NO":999,"REV_AT_EPOCH":67222,"BSTAR":0.0001127,"MEAN_MOTION_DOT":-8.4e-7,"MEAN_MOTION_DDOT":0}]}
